ONEWEB-0162             
1 48056U 21025Q   26158.15060737  .00000170  00000+0  43010-3 0  9992
2 48056  87.8950 322.2223 0001972  94.0765 266.0590 13.13468904252228
ONEWEB-0155             
1 48057U 21025R   26158.15751075 -.00000013  00000+0 -71657-4 0  9992
2 48057  87.8952 322.2170 0001684  99.0152 261.1168 13.13468756252364
ONEWEB-0149             
1 48058U 21025S   26158.17952228 -.00000320  00000+0 -91134-3 0  9990
2 48058  87.8958 322.2161 0002067  94.3639 265.7727 13.13469908252175
ONEWEB-0148             
1 48059U 21025T   26158.21845936  .00000324  00000+0  85195-3 0  9995
2 48059  87.8949 322.2159 0002356  97.4330 262.7067 13.13469415252308
ONEWEB-0160             
1 48060U 21025U   26158.15920693 -.00000076  00000+0 -24369-3 0  9996
2 48060  87.8948 322.2236 0001723  69.7062 290.4252 13.13469686252243
ONEWEB-0163             
1 48061U 21025V   26158.14397154  .00000262  00000+0  68238-3 0  9994
2 48061  87.8954 322.2205 0001815 103.7459 256.3873 13.13469986252364
ONEWEB-0159             
1 48062U 21025W   26158.21168736  .00000340  00000+0  89694-3 0  9991
2 48062  87.8956 322.2006 0001776 102.5921 257.5407 13.13470173252291
ONEWEB-0164             
1 48063U 21025X   26158.19305939 -.00000027  00000+0 -10756-3 0  9994
2 48063  87.8955 322.2106 0001773  92.8019 267.3313 13.13470009252279
ONEWEB-0167             
1 48064U 21025Y   26158.14480748  .00000324  00000+0  85332-3 0  9992
2 48064  87.8945 322.2308 0001348 113.8025 246.3245 13.13471389252253
ONEWEB-0166             
1 48065U 21025Z   26158.16766112 -.00000271  00000+0 -77574-3 0  9999
2 48065  87.8956 322.1967 0001978  96.8680 263.2674 13.13470757252333
ONEWEB-0151             
1 48066U 21025AA  26158.01699872 -.00000279  00000+0 -79869-3 0  9999
2 48066  87.8947 322.2443 0001683  96.1707 263.9614 13.13469237252253
ONEWEB-0170             
1 48067U 21025AB  26158.17782041 -.00000240  00000+0 -69151-3 0  9999
2 48067  87.8946 322.2140 0001428  85.9772 274.1520 13.13469736252234
ONEWEB-0168             
1 48068U 21025AC  26158.16258620 -.00000140  00000+0 -41903-3 0  9994
2 48068  87.8954 322.2163 0001865  99.8915 260.2425 13.13468945252249
ONEWEB-0173             
1 48069U 21025AD  26158.15412639  .00000052  00000+0  10740-3 0  9991
2 48069  87.8950 322.2204 0001714 106.8175 253.3142 13.13468893252489
ONEWEB-0171             
1 48070U 21025AE  26158.19136896 -.00000372  00000+0 -10530-2 0  9998
2 48070  87.8959 322.2214 0001712  94.3864 265.7461 13.13472203252307
ONEWEB-0172             
1 48071U 21025AF  26158.01869316 -.00000233  00000+0 -67380-3 0  9992
2 48071  87.8952 322.2445 0001673  98.5867 261.5452 13.13470597253176
ONEWEB-0174             
1 48072U 21025AG  26158.00008704  .00000052  00000+0  10798-3 0  9996
2 48072  87.8952 322.2483 0001942  96.6116 263.5235 13.13469291252498
ONEWEB-0175             
1 48073U 21025AH  26157.49730806 -.00000097  00000+0 -30012-3 0  9996
2 48073  87.8954 322.3322 0001454  94.5026 265.6270 13.13470585252084
ONEWEB-0177             
1 48074U 21025AJ  26158.19475503  .00000066  00000+0  14542-3 0  9999
2 48074  87.8949 322.2120 0001944 101.0422 259.0926 13.13470899252366
ONEWEB-0178             
1 48075U 21025AK  26158.21350534  .00000314  00000+0  82444-3 0  9991
2 48075  87.8942 322.2223 0001561 100.7152 259.4153 13.13471804252414
ONEWEB-0108             
1 48076U 21025AL  26158.17274384 -.00000266  00000+0 -76299-3 0  9994
2 48076  87.8958 322.2070 0001984  89.8092 270.3264 13.13469519252337
ONEWEB-0169             
1 48077U 21025AM  26158.20491253  .00000251  00000+0  65141-3 0  9991
2 48077  87.8949 322.2099 0001914  96.2992 263.8355 13.13469939250997
ONEWEB-0176             
1 48210U 21031A   26157.67474106  .00000209  00000+0  52871-3 0  9994
2 48210  87.8947 291.7949 0001724 101.1405 258.9918 13.14502211246933
ONEWEB-0184             
1 48211U 21031B   26158.10448005 -.00000134  00000+0 -39623-3 0  9992
2 48211  87.8964 291.7095 0001154 116.4148 243.7100 13.14502066246961
ONEWEB-0179             
1 48212U 21031C   26158.26772987  .00000173  00000+0  51642-4 0  9996
2 48212  87.8978 289.3602 0218784 289.9130  67.8610 14.25515665247638
ONEWEB-0180             
1 48213U 21031D   26158.10765630  .00000015  00000+0  67031-5 0  9992
2 48213  87.8958 291.7051 0001971 113.7298 246.4038 13.14502387246899
ONEWEB-0218             
1 48214U 21031E   26158.28209122  .00000349  00000+0  90721-3 0  9991
2 48214  87.8963 291.6693 0001375 126.8687 233.2569 13.14502223247075
ONEWEB-0209             
1 48215U 21031F   26158.27098204  .00000202  00000+0  51115-3 0  9990
2 48215  87.8949 291.6894 0002007 105.9811 254.1540 13.14504718247075
ONEWEB-0198             
1 48216U 21031G   26158.10303654 -.00000099  00000+0 -30037-3 0  9997
2 48216  87.8947 291.7229 0001819 114.0437 246.0883 13.14502147247166
ONEWEB-0189             
1 48217U 21031H   26158.11558823  .00000178  00000+0  44514-3 0  9990
2 48217  87.8960 291.7055 0001815 110.5669 249.5656 13.14502571246901
