OBJECT_NAME,OBJECT_ID,EPOCH,MEAN_MOTION,ECCENTRICITY,INCLINATION,RA_OF_ASC_NODE,ARG_OF_PERICENTER,MEAN_ANOMALY,EPHEMERIS_TYPE,CLASSIFICATION_TYPE,NORAD_CAT_ID,ELEMENT_SET_NO,REV_AT_EPOCH,BSTAR,MEAN_MOTION_DOT,MEAN_MOTION_DDOT
ONEWEB-0162,2021-025Q,2026-06-07T03:36:52.476768,13.13468904,.0001972,87.8950,322.2223,94.0765,266.0590,0,U,48056,999,25222,.4301E-3,.17E-5,0
ONEWEB-0155,2021-025R,2026-06-07T03:46:48.928800,13.13468756,.0001684,87.8952,322.2170,99.0152,261.1168,0,U,48057,999,25236,-.71657E-4,-.13E-6,0
ONEWEB-0149,2021-025S,2026-06-07T04:18:30.724992,13.13469908,.0002067,87.8958,322.2161,94.3639,265.7727,0,U,48058,999,25217,-.91134E-3,-.32E-5,0
ONEWEB-0148,2021-025T,2026-06-07T05:14:34.888704,13.13469415,.0002356,87.8949,322.2159,97.4330,262.7067,0,U,48059,999,25230,.85195E-3,.324E-5,0
ONEWEB-0160,2021-025U,2026-06-07T03:49:15.478752,13.13469686,.0001723,87.8948,322.2236,69.7062,290.4252,0,U,48060,999,25224,-.24369E-3,-.76E-6,0
ONEWEB-0163,2021-025V,2026-06-07T03:27:19.141056,13.13469986,.0001815,87.8954,322.2205,103.7459,256.3873,0,U,48061,999,25236,.68238E-3,.262E-5,0
ONEWEB-0159,2021-025W,2026-06-07T05:04:49.787904,13.13470173,.0001776,87.8956,322.2006,102.5921,257.5407,0,U,48062,999,25229,.89694E-3,.34E-5,0
ONEWEB-0164,2021-025X,2026-06-07T04:38:00.331296,13.13470009,.0001773,87.8955,322.2106,92.8019,267.3313,0,U,48063,999,25227,-.10756E-3,-.27E-6,0
ONEWEB-0167,2021-025Y,2026-06-07T03:28:31.366272,13.13471389,.0001348,87.8945,322.2308,113.8025,246.3245,0,U,48064,999,25225,.85332E-3,.324E-5,0
ONEWEB-0166,2021-025Z,2026-06-07T04:01:25.920768,13.13470757,.0001978,87.8956,322.1967,96.8680,263.2674,0,U,48065,999,25233,-.77574E-3,-.271E-5,0
ONEWEB-0151,2021-025AA,2026-06-07T00:24:28.689408,13.13469237,.0001683,87.8947,322.2443,96.1707,263.9614,0,U,48066,999,25225,-.79869E-3,-.279E-5,0
ONEWEB-0170,2021-025AB,2026-06-07T04:16:03.683424,13.13469736,.0001428,87.8946,322.2140,85.9772,274.1520,0,U,48067,999,25223,-.69151E-3,-.24E-5,0
ONEWEB-0168,2021-025AC,2026-06-07T03:54:07.447680,13.13468945,.0001865,87.8954,322.2163,99.8915,260.2425,0,U,48068,999,25224,-.41903E-3,-.14E-5,0
ONEWEB-0173,2021-025AD,2026-06-07T03:41:56.520096,13.13468893,.0001714,87.8950,322.2204,106.8175,253.3142,0,U,48069,999,25248,.1074E-3,.52E-6,0
ONEWEB-0171,2021-025AE,2026-06-07T04:35:34.278144,13.13472203,.0001712,87.8959,322.2214,94.3864,265.7461,0,U,48070,999,25230,-.1053E-2,-.372E-5,0
ONEWEB-0172,2021-025AF,2026-06-07T00:26:55.089024,13.13470597,.0001673,87.8952,322.2445,98.5867,261.5452,0,U,48071,999,25317,-.6738E-3,-.233E-5,0
ONEWEB-0174,2021-025AG,2026-06-07T00:00:07.520256,13.13469291,.0001942,87.8952,322.2483,96.6116,263.5235,0,U,48072,999,25249,.10798E-3,.52E-6,0
ONEWEB-0175,2021-025AH,2026-06-06T11:56:07.416384,13.13470585,.0001454,87.8954,322.3322,94.5026,265.6270,0,U,48073,999,25208,-.30012E-3,-.97E-6,0
ONEWEB-0177,2021-025AJ,2026-06-07T04:40:26.834592,13.13470899,.0001944,87.8949,322.2120,101.0422,259.0926,0,U,48074,999,25236,.14542E-3,.66E-6,0
ONEWEB-0178,2021-025AK,2026-06-07T05:07:26.861376,13.13471804,.0001561,87.8942,322.2223,100.7152,259.4153,0,U,48075,999,25241,.82444E-3,.314E-5,0
ONEWEB-0108,2021-025AL,2026-06-07T04:08:45.067776,13.13469519,.0001984,87.8958,322.2070,89.8092,270.3264,0,U,48076,999,25233,-.76299E-3,-.266E-5,0
ONEWEB-0169,2021-025AM,2026-06-07T04:55:04.442592,13.13469939,.0001914,87.8949,322.2099,96.2992,263.8355,0,U,48077,999,25099,.65141E-3,.251E-5,0
ONEWEB-0176,2021-031A,2026-06-06T16:11:37.627584,13.14502211,.00017247,87.8947,291.7949,101.1405,258.9918,0,U,48210,999,24693,.52870668E-3,.209E-5,0
ONEWEB-0184,2021-031B,2026-06-07T02:30:27.076320,13.14502066,.0001154,87.8964,291.7095,116.4148,243.7100,0,U,48211,999,24696,-.39623E-3,-.134E-5,0
ONEWEB-0179,2021-031C,2026-06-07T06:25:31.860768,14.25515665,.0218784,87.8978,289.3602,289.9130,67.8610,0,U,48212,999,24763,.51642E-4,.173E-5,0
ONEWEB-0180,2021-031D,2026-06-07T02:35:01.504320,13.14502387,.0001971,87.8958,291.7051,113.7298,246.4038,0,U,48213,999,24689,.67031E-5,.15E-6,0
ONEWEB-0218,2021-031E,2026-06-07T06:46:12.681408,13.14502223,.0001375,87.8963,291.6693,126.8687,233.2569,0,U,48214,999,24707,.90721E-3,.349E-5,0
ONEWEB-0209,2021-031F,2026-06-07T06:30:12.848256,13.14504718,.0002007,87.8949,291.6894,105.9811,254.1540,0,U,48215,999,24707,.51115E-3,.202E-5,0
ONEWEB-0198,2021-031G,2026-06-07T02:28:22.357056,13.14502147,.0001819,87.8947,291.7229,114.0437,246.0883,0,U,48216,999,24716,-.30037E-3,-.99E-6,0
ONEWEB-0189,2021-031H,2026-06-07T02:46:26.823072,13.14502571,.0001815,87.8960,291.7055,110.5669,249.5656,0,U,48217,999,24690,.44514E-3,.178E-5,0
